OBJECT C                
1 57582U 23117C   24175.18553974  .00005101  00000+0  26779-3 0  9992
2 57582  97.4866 247.1609 0009246 271.9655  88.0518 15.16135753 48092
